LEMUR-2-LEIA-PHILIP     
1 63246U 25052AN  26199.67832972 -.00000006  00000+0  43895-5 0  9996
2 63246  97.6795  91.0948 0005040 112.1751 248.0006 14.97392473 73384
LEMUR-2-LIA-MARTIN      
1 63248U 25052AQ  26199.27061340  .00001371  00000+0  12086-3 0  9998
2 63248  97.6856  91.2182 0005095  82.8339 277.3462 14.98040971 73331
LEMUR-2-DELOITTE-1      
1 63259U 25052BB  26199.85283183  .00002394  00000+0  20875-3 0  9996
2 63259  97.6885  92.1212 0002543  59.7870 300.3604 14.97799936 73434
LEMUR-2-EMERSONROSE     
1 63261U 25052BD  26199.52963754  .00002218  00000+0  18642-3 0  9996
2 63261  97.6882  92.4238 0002537  54.1024 306.0435 14.99307574 73438
LEMUR-2-MARACHE-FRAN    
1 63262U 25052BE  26199.68346648  .00001577  00000+0  13045-3 0  9990
2 63262  97.6820  92.9461 0005607 238.5263 121.5413 15.00327527 73482
LEMUR-2-THEFALCONER     
1 63264U 25052BG  26199.68338382  .00001030  00000+0  93164-4 0  9993
2 63264  97.6818  91.5411 0000539 237.8231 122.2939 14.97570780 73406
LEMUR-2-UNTITLED-SC     
1 63351U 25061A   26199.88793216  .00001770  00000+0  10174-3 0  9993
2 63351  97.5660 175.0260 0019553 150.7612 209.4718 15.13659594 72388
LEMUR-2-ESPERANZA       
1 63352U 25061B   26199.66470058  .00001643  00000+0  94438-4 0  9991
2 63352  97.5666 174.9054 0019152 150.8253 209.4052 15.13764405 72357
LEMUR-2-KREMPEL-BRO2    
1 63353U 25061C   26199.81486259  .00001869  00000+0  10561-3 0  9993
2 63353  97.5710 175.6282 0020282 143.3133 216.9492 15.14192720 72390
LEMUR-2-THERMORAPTOR    
1 63354U 25061D   26199.86130197  .00001852  00000+0  10447-3 0  9991
2 63354  97.5718 175.7562 0020023 142.1235 218.1410 15.14275787 72405
LEMUR-2-NEUROSPICY      
1 63355U 25061E   26199.83052852  .00001847  00000+0  10396-3 0  9997
2 63355  97.5646 175.3272 0017799 145.0136 215.2268 15.14394488 72407
LEMUR-2-TILLINFINITY    
1 63356U 25061F   26199.78754897  .00001958  00000+0  10811-3 0  9995
2 63356  97.5630 175.5972 0019293 134.1906 226.0915 15.14979073 72425
LEMUR-2-KREMPEL-BRO1    
1 63357U 25061G   26199.83111551  .00001863  00000+0  10356-3 0  9995
2 63357  97.5632 175.5476 0019968 135.4370 224.8472 15.14785725 72428
LEMUR-2-LANGER2SPACE    
1 63358U 25061H   26199.86397661  .00001870  00000+0  10494-3 0  9998
2 63358  97.5636 175.3817 0017704 143.2833 216.9615 15.14479414 72412
LEMUR-2-BALTO           
1 63395U 25052BH  26199.26755964  .00002228  00000+0  18215-3 0  9994
2 63395  97.6922  92.5277 0005017 314.5167  45.5646 15.00379070 73423
LEMUR-2-KRISH           
1 64561U 25135AK  26199.77115358  .00001823  00000+0  16579-3 0  9996
2 64561  97.7766 314.4387 0001124 102.7464 257.3883 14.96461546 58643
