{"fetched_at":"2026-07-19T07:04:54.104Z","source":"https://celestrak.org/NORAD/elements/gp.php?GROUP=spire&FORMAT=JSON","constellation":"spire","records":[{"OBJECT_NAME":"LEMUR-2-LEIA-PHILIP","OBJECT_ID":"2025-052AN","EPOCH":"2026-07-18T16:16:47.687808","CLASSIFICATION_TYPE":"U","MEAN_MOTION":14.97392473,"ECCENTRICITY":0.000504,"INCLINATION":97.6795,"RA_OF_ASC_NODE":91.0948,"ARG_OF_PERICENTER":112.1751,"MEAN_ANOMALY":248.0006,"EPHEMERIS_TYPE":0,"NORAD_CAT_ID":63246,"ELEMENT_SET_NO":999,"REV_AT_EPOCH":7338,"BSTAR":0.0000043895,"MEAN_MOTION_DOT":-6e-8,"MEAN_MOTION_DDOT":0},{"OBJECT_NAME":"LEMUR-2-LIA-MARTIN","OBJECT_ID":"2025-052AQ","EPOCH":"2026-07-18T06:29:40.997760","CLASSIFICATION_TYPE":"U","MEAN_MOTION":14.98040971,"ECCENTRICITY":0.00050959,"INCLINATION":97.6856,"RA_OF_ASC_NODE":91.2182,"ARG_OF_PERICENTER":82.8339,"MEAN_ANOMALY":277.3462,"EPHEMERIS_TYPE":0,"NORAD_CAT_ID":63248,"ELEMENT_SET_NO":999,"REV_AT_EPOCH":7333,"BSTAR":0.00012086411,"MEAN_MOTION_DOT":0.00001371,"MEAN_MOTION_DDOT":0},{"OBJECT_NAME":"LEMUR-2-DELOITTE-1","OBJECT_ID":"2025-052BB","EPOCH":"2026-07-18T20:28:04.670112","CLASSIFICATION_TYPE":"U","MEAN_MOTION":14.97799936,"ECCENTRICITY":0.0002543,"INCLINATION":97.6885,"RA_OF_ASC_NODE":92.1212,"ARG_OF_PERICENTER":59.787,"MEAN_ANOMALY":300.3604,"EPHEMERIS_TYPE":0,"NORAD_CAT_ID":63259,"ELEMENT_SET_NO":999,"REV_AT_EPOCH":7343,"BSTAR":0.00020875,"MEAN_MOTION_DOT":0.00002394,"MEAN_MOTION_DDOT":0},{"OBJECT_NAME":"LEMUR-2-EMERSONROSE","OBJECT_ID":"2025-052BD","EPOCH":"2026-07-18T12:42:40.683456","CLASSIFICATION_TYPE":"U","MEAN_MOTION":14.99307574,"ECCENTRICITY":0.00025378,"INCLINATION":97.6882,"RA_OF_ASC_NODE":92.4238,"ARG_OF_PERICENTER":54.1024,"MEAN_ANOMALY":306.0435,"EPHEMERIS_TYPE":0,"NORAD_CAT_ID":63261,"ELEMENT_SET_NO":999,"REV_AT_EPOCH":7343,"BSTAR":0.0001864203,"MEAN_MOTION_DOT":0.00002218,"MEAN_MOTION_DDOT":0},{"OBJECT_NAME":"LEMUR-2-MARACHE-FRAN","OBJECT_ID":"2025-052BE","EPOCH":"2026-07-18T16:24:11.503872","CLASSIFICATION_TYPE":"U","MEAN_MOTION":15.00327527,"ECCENTRICITY":0.0005607,"INCLINATION":97.682,"RA_OF_ASC_NODE":92.9461,"ARG_OF_PERICENTER":238.5263,"MEAN_ANOMALY":121.5413,"EPHEMERIS_TYPE":0,"NORAD_CAT_ID":63262,"ELEMENT_SET_NO":999,"REV_AT_EPOCH":7348,"BSTAR":0.00013045,"MEAN_MOTION_DOT":0.00001577,"MEAN_MOTION_DDOT":0},{"OBJECT_NAME":"LEMUR-2-THEFALCONER","OBJECT_ID":"2025-052BG","EPOCH":"2026-07-18T16:24:04.362048","CLASSIFICATION_TYPE":"U","MEAN_MOTION":14.9757078,"ECCENTRICITY":0.0000539,"INCLINATION":97.6818,"RA_OF_ASC_NODE":91.5411,"ARG_OF_PERICENTER":237.8231,"MEAN_ANOMALY":122.2939,"EPHEMERIS_TYPE":0,"NORAD_CAT_ID":63264,"ELEMENT_SET_NO":999,"REV_AT_EPOCH":7340,"BSTAR":0.000093164,"MEAN_MOTION_DOT":0.0000103,"MEAN_MOTION_DDOT":0},{"OBJECT_NAME":"LEMUR-2-UNTITLED-SC","OBJECT_ID":"2025-061A","EPOCH":"2026-07-18T21:18:37.338624","CLASSIFICATION_TYPE":"U","MEAN_MOTION":15.13659594,"ECCENTRICITY":0.0019553,"INCLINATION":97.566,"RA_OF_ASC_NODE":175.026,"ARG_OF_PERICENTER":150.7612,"MEAN_ANOMALY":209.4718,"EPHEMERIS_TYPE":0,"NORAD_CAT_ID":63351,"ELEMENT_SET_NO":999,"REV_AT_EPOCH":7238,"BSTAR":0.00010174,"MEAN_MOTION_DOT":0.0000177,"MEAN_MOTION_DDOT":0},{"OBJECT_NAME":"LEMUR-2-ESPERANZA","OBJECT_ID":"2025-061B","EPOCH":"2026-07-18T15:57:10.130112","CLASSIFICATION_TYPE":"U","MEAN_MOTION":15.13764405,"ECCENTRICITY":0.0019152,"INCLINATION":97.5666,"RA_OF_ASC_NODE":174.9054,"ARG_OF_PERICENTER":150.8253,"MEAN_ANOMALY":209.4052,"EPHEMERIS_TYPE":0,"NORAD_CAT_ID":63352,"ELEMENT_SET_NO":999,"REV_AT_EPOCH":7235,"BSTAR":0.000094438,"MEAN_MOTION_DOT":0.00001643,"MEAN_MOTION_DDOT":0},{"OBJECT_NAME":"LEMUR-2-KREMPEL-BRO2","OBJECT_ID":"2025-061C","EPOCH":"2026-07-18T19:33:24.127776","CLASSIFICATION_TYPE":"U","MEAN_MOTION":15.1419272,"ECCENTRICITY":0.0020282,"INCLINATION":97.571,"RA_OF_ASC_NODE":175.6282,"ARG_OF_PERICENTER":143.3133,"MEAN_ANOMALY":216.9492,"EPHEMERIS_TYPE":0,"NORAD_CAT_ID":63353,"ELEMENT_SET_NO":999,"REV_AT_EPOCH":7239,"BSTAR":0.00010561,"MEAN_MOTION_DOT":0.00001869,"MEAN_MOTION_DDOT":0},{"OBJECT_NAME":"LEMUR-2-THERMORAPTOR","OBJECT_ID":"2025-061D","EPOCH":"2026-07-18T20:40:16.490208","CLASSIFICATION_TYPE":"U","MEAN_MOTION":15.14275787,"ECCENTRICITY":0.0020023,"INCLINATION":97.5718,"RA_OF_ASC_NODE":175.7562,"ARG_OF_PERICENTER":142.1235,"MEAN_ANOMALY":218.141,"EPHEMERIS_TYPE":0,"NORAD_CAT_ID":63354,"ELEMENT_SET_NO":999,"REV_AT_EPOCH":7240,"BSTAR":0.00010447,"MEAN_MOTION_DOT":0.00001852,"MEAN_MOTION_DDOT":0},{"OBJECT_NAME":"LEMUR-2-NEUROSPICY","OBJECT_ID":"2025-061E","EPOCH":"2026-07-18T19:55:57.664128","CLASSIFICATION_TYPE":"U","MEAN_MOTION":15.14394488,"ECCENTRICITY":0.0017799,"INCLINATION":97.5646,"RA_OF_ASC_NODE":175.3272,"ARG_OF_PERICENTER":145.0136,"MEAN_ANOMALY":215.2268,"EPHEMERIS_TYPE":0,"NORAD_CAT_ID":63355,"ELEMENT_SET_NO":999,"REV_AT_EPOCH":7240,"BSTAR":0.00010396,"MEAN_MOTION_DOT":0.00001847,"MEAN_MOTION_DDOT":0},{"OBJECT_NAME":"LEMUR-2-TILLINFINITY","OBJECT_ID":"2025-061F","EPOCH":"2026-07-18T18:54:04.231008","CLASSIFICATION_TYPE":"U","MEAN_MOTION":15.14979073,"ECCENTRICITY":0.0019293,"INCLINATION":97.563,"RA_OF_ASC_NODE":175.5972,"ARG_OF_PERICENTER":134.1906,"MEAN_ANOMALY":226.0915,"EPHEMERIS_TYPE":0,"NORAD_CAT_ID":63356,"ELEMENT_SET_NO":999,"REV_AT_EPOCH":7242,"BSTAR":0.00010811,"MEAN_MOTION_DOT":0.00001958,"MEAN_MOTION_DDOT":0},{"OBJECT_NAME":"LEMUR-2-KREMPEL-BRO1","OBJECT_ID":"2025-061G","EPOCH":"2026-07-18T19:56:48.380064","CLASSIFICATION_TYPE":"U","MEAN_MOTION":15.14785725,"ECCENTRICITY":0.0019968,"INCLINATION":97.5632,"RA_OF_ASC_NODE":175.5476,"ARG_OF_PERICENTER":135.437,"MEAN_ANOMALY":224.8472,"EPHEMERIS_TYPE":0,"NORAD_CAT_ID":63357,"ELEMENT_SET_NO":999,"REV_AT_EPOCH":7242,"BSTAR":0.00010356,"MEAN_MOTION_DOT":0.00001863,"MEAN_MOTION_DDOT":0},{"OBJECT_NAME":"LEMUR-2-LANGER2SPACE","OBJECT_ID":"2025-061H","EPOCH":"2026-07-18T20:44:07.579104","CLASSIFICATION_TYPE":"U","MEAN_MOTION":15.14479414,"ECCENTRICITY":0.0017704,"INCLINATION":97.5636,"RA_OF_ASC_NODE":175.3817,"ARG_OF_PERICENTER":143.2833,"MEAN_ANOMALY":216.9615,"EPHEMERIS_TYPE":0,"NORAD_CAT_ID":63358,"ELEMENT_SET_NO":999,"REV_AT_EPOCH":7241,"BSTAR":0.00010494,"MEAN_MOTION_DOT":0.0000187,"MEAN_MOTION_DDOT":0},{"OBJECT_NAME":"LEMUR-2-BALTO","OBJECT_ID":"2025-052BH","EPOCH":"2026-07-18T06:25:17.152896","CLASSIFICATION_TYPE":"U","MEAN_MOTION":15.0037907,"ECCENTRICITY":0.00050173,"INCLINATION":97.6922,"RA_OF_ASC_NODE":92.5277,"ARG_OF_PERICENTER":314.5167,"MEAN_ANOMALY":45.5646,"EPHEMERIS_TYPE":0,"NORAD_CAT_ID":63395,"ELEMENT_SET_NO":999,"REV_AT_EPOCH":7342,"BSTAR":0.00018215448,"MEAN_MOTION_DOT":0.00002228,"MEAN_MOTION_DDOT":0},{"OBJECT_NAME":"LEMUR-2-KRISH","OBJECT_ID":"2025-135AK","EPOCH":"2026-07-18T18:30:27.669312","CLASSIFICATION_TYPE":"U","MEAN_MOTION":14.96461546,"ECCENTRICITY":0.0001124,"INCLINATION":97.7766,"RA_OF_ASC_NODE":314.4387,"ARG_OF_PERICENTER":102.7464,"MEAN_ANOMALY":257.3883,"EPHEMERIS_TYPE":0,"NORAD_CAT_ID":64561,"ELEMENT_SET_NO":999,"REV_AT_EPOCH":5864,"BSTAR":0.00016579,"MEAN_MOTION_DOT":0.00001823,"MEAN_MOTION_DDOT":0}]}
